     2.100          NAVIGATION                              RINEX VERSION / TYPE
fic2rin                                 10/21/2015 00:06:16 PGM / RUN BY / DATE
                                                            END OF HEADER
20 15 10 20  6  0  0.0  .364508945495D-03  .295585778076D-11  .000000000000D+00
     .240000000000D+02  .168125000000D+02  .541593988135D-08 -.127741093236D+01
     .113062560558D-05  .497256685048D-02  .702776014805D-05  .515365099525D+04
     .194400000000D+06  .167638063431D-07  .268902222900D+01  .819563865662D-07
     .926446511587D+00  .222562500000D+03  .124992822124D+01 -.849606818106D-08
     .190007914592D-09  .100000000000D+01  .186700000000D+04  .000000000000D+00
     .240000000000D+01  .000000000000D+00 -.838190317154D-08  .240000000000D+02
     .187206000000D+06  .400000000000D+01
21 15 10 20  6  0  0.0 -.487914774567D-03 -.250111042988D-11  .000000000000D+00
     .330000000000D+02 -.335000000000D+02  .494020577940D-08  .189251318085D+01
    -.215135514736D-05  .226170127280D-01  .899471342564D-05  .515374242592D+04
     .194400000000D+06  .279396772385D-07  .169824075400D+01 -.596046447754D-06
     .934485685308D+00  .192781250000D+03 -.186973983124D+01 -.810283751571D-08
     .212866009581D-09  .100000000000D+01  .186700000000D+04  .000000000000D+00
     .240000000000D+01  .000000000000D+00 -.116415321827D-07  .330000000000D+02
     .187206000000D+06  .400000000000D+01
23 15 10 20  6  0  0.0 -.139822717756D-03 -.216004991671D-11  .000000000000D+00
     .990000000000D+02  .226250000000D+02  .485591655413D-08 -.179296722609D+01
     .864267349243D-06  .103850272717D-01  .814162194729D-05  .515378469658D+04
     .194400000000D+06  .132247805595D-06 -.246823810144D+01 -.745058059692D-07
     .947586656525D+00  .212625000000D+03 -.262331859161D+01 -.810033741157D-08
    -.928610108910D-10  .100000000000D+01  .186700000000D+04  .000000000000D+00
     .240000000000D+01  .630000000000D+02 -.200234353542D-07  .990000000000D+02
     .187206000000D+06  .400000000000D+01
24 15 10 20  6  0  0.0 -.661611557007D-05 -.682121026330D-12  .000000000000D+00
     .640000000000D+02  .565625000000D+02  .473198282036D-08 -.244507250546D+01
     .286474823952D-05  .356780877337D-02  .835955142975D-05  .515365335274D+04
     .194400000000D+06 -.242143869400D-07 -.144133812703D+01 -.763684511185D-07
     .951691484696D+00  .215187500000D+03  .293422764682D+00 -.814641075928D-08
     .525021869268D-10  .100000000000D+01  .186700000000D+04  .000000000000D+00
     .340000000000D+01  .000000000000D+00  .279396772385D-08  .640000000000D+02
     .187206000000D+06  .400000000000D+01
26 15 10 20  6  0  0.0 -.905441120267D-04 -.136424205266D-10  .000000000000D+00
     .460000000000D+02  .378125000000D+01  .475769817723D-08  .126186803926D+01
     .350177288055D-06  .228636083193D-03  .400096178055D-05  .515365374947D+04
     .194400000000D+06  .540167093277D-07 -.379768231763D+00 -.763684511185D-07
     .960787316831D+00  .299500000000D+03 -.750324289904D-01 -.838820654533D-08
    -.460733477113D-10  .100000000000D+01  .186700000000D+04  .000000000000D+00
     .240000000000D+01  .000000000000D+00  .745058059692D-08  .460000000000D+02
     .187206000000D+06  .400000000000D+01
27 15 10 20  6  0  0.0  .289720483124D-04  .306954461848D-11  .000000000000D+00
     .700000000000D+02 -.699375000000D+02  .435410993758D-08 -.648968551871D+00
    -.375695526600D-05  .268439296633D-02  .751763582230D-05  .515370574570D+04
     .194400000000D+06  .447034835815D-07  .667778999767D+00  .260770320892D-07
     .968955440929D+00  .239937500000D+03  .308299452195D+00 -.806319300721D-08
    -.160006664920D-09  .100000000000D+01  .186700000000D+04  .000000000000D+00
     .340000000000D+01  .000000000000D+00  .186264514923D-08  .700000000000D+02
     .187206000000D+06  .400000000000D+01
30 15 10 20  6  0  0.0  .439360737801D-04  .602540239925D-11  .000000000000D+00
     .920000000000D+02  .771250000000D+02  .473019703169D-08  .278081311166D+01
     .404380261898D-05  .169820478186D-02  .824965536594D-05  .515368776894D+04
     .194400000000D+06 -.372529029846D-07 -.135065068690D+01 -.372529029846D-08
     .954326621477D+00  .218062500000D+03 -.312852168682D+01 -.819462705339D-08
     .796461747257D-10  .100000000000D+01  .186700000000D+04  .000000000000D+00
     .240000000000D+01  .000000000000D+00  .325962901115D-08  .920000000000D+02
     .187206000000D+06  .400000000000D+01
31 15 10 20  6  0  0.0  .298532191664D-03 -.147792889038D-11  .000000000000D+00
     .400000000000D+02  .604375000000D+02  .425696303388D-08  .286446288154D+01
     .328198075294D-05  .819688185584D-02  .772252678871D-05  .515362118340D+04
     .194400000000D+06 -.838190317154D-07 -.138955503876D+01  .167638063431D-06
     .973404891638D+00  .237562500000D+03 -.513398716317D+00 -.787889961637D-08
     .328585115460D-10  .100000000000D+01  .186700000000D+04  .000000000000D+00
     .240000000000D+01  .000000000000D+00 -.135041773319D-07  .400000000000D+02
     .187206000000D+06  .400000000000D+01
32 15 10 20  6  0  0.0 -.891229137778D-05  .115960574476D-10  .000000000000D+00
     .300000000000D+02  .806250000000D+01  .489913263997D-08 -.299673160003D+01
     .419095158577D-06  .113562493352D-01  .726245343685D-05  .515366614914D+04
     .194400000000D+06 -.163912773132D-06  .284636573934D+01 -.502914190292D-07
     .947159582461D+00  .232437500000D+03  .152317302707D+00 -.810819488172D-08
     .642883921553D-10  .100000000000D+01  .186700000000D+04  .000000000000D+00
     .240000000000D+01  .000000000000D+00 -.325962901115D-08  .300000000000D+02
     .187206000000D+06  .400000000000D+01
 5 15 10 20  5 59 44.0 -.183277763426D-03  .386535248253D-11  .000000000000D+00
     .190000000000D+02  .110312500000D+02  .499306512406D-08  .241948647641D+00
     .676140189171D-06  .446897966322D-02  .716932117939D-05  .515365816879D+04
     .194384000000D+06  .502914190292D-07  .275743221657D+01  .558793544769D-07
     .946665733502D+00  .231875000000D+03  .447194360103D+00 -.829463121897D-08
     .135362781260D-09  .100000000000D+01  .186700000000D+04  .000000000000D+00
     .240000000000D+01  .000000000000D+00 -.107102096081D-07  .190000000000D+02
     .187236000000D+06  .400000000000D+01
27 15 10 20  5 59 44.0  .289720483124D-04  .306954461848D-11  .000000000000D+00
     .700000000000D+01 -.699375000000D+02  .435410993758D-08 -.651300939218D+00
    -.375695526600D-05  .268439843785D-02  .751763582230D-05  .515370575333D+04
     .194384000000D+06  .447034835815D-07  .667779151911D+00  .260770320892D-07
     .968955432152D+00  .239937500000D+03  .308298068275D+00 -.806319300721D-08
    -.160006664920D-09  .100000000000D+01  .186700000000D+04  .000000000000D+00
     .240000000000D+01  .000000000000D+00  .186264514923D-08  .700000000000D+01
     .190926000000D+06  .400000000000D+01
23 15 10 20  5 59 44.0 -.139823649079D-03 -.216004991671D-11  .000000000000D+00
     .370000000000D+02  .226250000000D+02  .485591655413D-08 -.179530108367D+01
     .864267349243D-06  .103850245941D-01  .814162194729D-05  .515378470421D+04
     .194384000000D+06  .132247805595D-06 -.246823797856D+01 -.745058059692D-07
     .947586657988D+00  .212625000000D+03 -.262331834877D+01 -.810069456930D-08
    -.932181686252D-10  .100000000000D+01  .186700000000D+04  .000000000000D+00
     .240000000000D+01  .630000000000D+02 -.200234353542D-07  .370000000000D+02
     .191706000000D+06  .400000000000D+01
23 15 10 20  7 59 44.0 -.139838550240D-03 -.216004991671D-11  .000000000000D+00
     .380000000000D+02  .193125000000D+02  .484377319117D-08 -.745149231828D+00
     .110827386379D-05  .103854407789D-01  .793300569057D-05  .515378561592D+04
     .201584000000D+06  .206753611565D-06 -.246829599789D+01  .150874257088D-06
     .947585029760D+00  .217093750000D+03 -.262335522015D+01 -.827998775187D-08
    -.200365488884D-09  .100000000000D+01  .186700000000D+04  .000000000000D+00
     .240000000000D+01  .630000000000D+02 -.200234353542D-07  .380000000000D+02
     .194406000000D+06  .400000000000D+01
27 15 10 20  7 59 44.0  .289939343929D-04  .306954461848D-11  .000000000000D+00
     .100000000000D+02 -.656875000000D+02  .441054085959D-08  .398950525639D+00
    -.344030559063D-05  .268617237452D-02  .663287937641D-05  .515370914268D+04
     .201584000000D+06 -.130385160446D-07  .667720768313D+00 -.130385160446D-07
     .968954010195D+00  .252000000000D+03  .308205916139D+00 -.813141013444D-08
    -.148577617426D-09  .100000000000D+01  .186700000000D+04  .000000000000D+00
     .240000000000D+01  .000000000000D+00  .186264514923D-08  .100000000000D+02
     .194406000000D+06  .400000000000D+01
 1 15 10 20  8  0  0.0  .273343175650D-05  .795807864051D-12  .000000000000D+00
     .950000000000D+02 -.225000000000D+02  .436803908922D-08 -.172767842838D+01
    -.114366412163D-05  .476320134476D-02  .959448516369D-05  .515365892220D+04
     .201600000000D+06 -.484287738800D-07  .172536928094D+01 -.122934579849D-06
     .962689451194D+00  .196875000000D+03  .491596756018D+00 -.785532720591D-08
     .186793494985D-09  .100000000000D+01  .186700000000D+04  .000000000000D+00
     .240000000000D+01  .000000000000D+00  .512227416039D-08  .950000000000D+02
     .194406000000D+06  .400000000000D+01
 2 15 10 20  8  0  0.0  .593325123191D-03  .125055521494D-11  .000000000000D+00
     .760000000000D+02 -.313437500000D+02  .496556397853D-08 -.114687286644D+01
    -.154785811901D-05  .148763429606D-01  .973232090473D-05  .515364883614D+04
     .201600000000D+06  .359490513802D-06  .168461831685D+01  .288709998131D-06
     .941365723204D+00  .181625000000D+03 -.222328928239D+01 -.821712799065D-08
     .120004998690D-09  .100000000000D+01  .186700000000D+04  .000000000000D+00
     .240000000000D+01  .000000000000D+00 -.204890966415D-07  .760000000000D+02
     .194406000000D+06  .400000000000D+01
